GSAT0101 (PRN E11)      
1 37846U 11060A   21172.50093737 -.00000074  00000-0  00000-0 0  9995
2 37846  56.8400  31.1699 0003549  31.7479 328.3348  1.70475128 60062
GSAT0102 (PRN E12)      
1 37847U 11060B   21169.18609356 -.00000068  00000-0  00000-0 0  9999
2 37847  56.8390  31.2600 0003556 354.9463 177.0344  1.70475408 60016
GSAT0103 (PRN E19)      
1 38857U 12055A   21171.36880200  .00000078  00000-0  00000-0 0  9998
2 38857  55.0484 151.6573 0005079 271.8715  88.0543  1.70473661 53932
GSAT0104 (PRN E20)      
1 38858U 12055B   21171.92612167  .00000074  00000-0  00000-0 0  9992
2 38858  55.0484 151.6435 0002735 277.1322  82.8176  1.70473980 53948
GSAT0201 (PRN E18)      
1 40128U 14050A   21172.07911782 -.00000095  00000-0  00000+0 0  9997
2 40128  50.4743 346.6779 1648892 111.5269 266.8633  1.85518598 46458
GSAT0202 (PRN E14)      
1 40129U 14050B   21172.34144885 -.00000096  00000-0  00000-0 0  9992
2 40129  50.5050 345.7169 1646091 112.3431 265.9410  1.85519261 46689
GSAT0203 (PRN E26)      
1 40544U 15017A   21171.69600747 -.00000073  00000-0  00000-0 0  9993
2 40544  56.6335  31.2748 0001260 258.7789 101.2669  1.70474492 38135
GSAT0204 (PRN E22)      
1 40545U 15017B   21172.53568718 -.00000074  00000-0  00000-0 0  9990
2 40545  56.6397  31.2626 0001153 201.9443 158.1118  1.70475452  1190
GSAT0205 (PRN E24)      
1 40889U 15045A   21171.13055834 -.00000022  00000-0  00000-0 0  9990
2 40889  55.8723 271.9680 0003291  11.3682 348.6658  1.70475594 35932
GSAT0206 (PRN E30)      
1 40890U 15045B   21171.93662291 -.00000023  00000-0  00000-0 0  9992
2 40890  55.8711 271.9420 0001647 348.0076  12.0155  1.70475576 35971
GSAT0209 (PRN E09)      
1 41174U 15079A   21171.52452307  .00000077  00000-0  00000-0 0  9993
2 41174  55.0639 151.3538 0005710 306.3659  53.5640  1.70473052 33703
GSAT0208 (PRN E08)      
1 41175U 15079B   21172.33077075  .00000070  00000-0  00000-0 0  9992
2 41175  55.0619 151.3306 0004972 305.1394  54.7917  1.70473153 34137
GSAT0211 (PRN E02)      
1 41549U 16030A   21168.93217461 -.00000015  00000-0  00000-0 0  9991
2 41549  56.0174 271.9195 0002920 311.2710  48.7359  1.70475343 31554
GSAT0210 (PRN E01)      
1 41550U 16030B   21170.39811979 -.00000021  00000-0  00000-0 0  9997
2 41550  56.0157 271.8807 0002848 269.5114  90.4837  1.70475435 31577
GSAT0207 (PRN E07)      
1 41859U 16069A   21170.64398694  .00000081  00000-0  10000-3 0  9992
2 41859  54.7236 151.6494 0005783 295.9748  63.9583  1.70476174 28543
GSAT0212 (PRN E03)      
1 41860U 16069B   21172.25714501  .00000071  00000-0  00000+0 0  9996
2 41860  54.7205 151.6026 0004497 312.3093  47.6313  1.70472980 28596
GSAT0213 (PRN E04)      
1 41861U 16069C   21171.44963393  .00000077  00000-0  00000-0 0  9999
2 41861  54.7228 151.6296 0005250 278.1137  81.8102  1.70473154 28441
GSAT0214 (PRN E05)      
1 41862U 16069D   21172.18324578  .00000071  00000-0  00000-0 0  9992
2 41862  54.7214 151.6043 0004363 282.8196  77.1109  1.70473110 28580
GSAT0215 (PRN E21)      
1 43055U 17079A   21171.50091601 -.00000022  00000-0  00000-0 0  9990
2 43055  55.9900 271.6867 0002333 259.7870 100.2138  1.70474518 21918
GSAT0216 (PRN E25)      
1 43056U 17079B   21172.37999417 -.00000022  00000-0  00000-0 0  9999
2 43056  55.9902 271.6623 0004152 267.8311  92.1498  1.70474610 21946
GSAT0217 (PRN E27)      
1 43057U 17079C   21171.42696033 -.00000022  00000-0  00000-0 0  9993
2 43057  55.9885 271.6886 0003569 281.1284  78.8586  1.70474588 21917
GSAT0218 (PRN E31)      
1 43058U 17079D   21172.23355834 -.00000022  00000-0  00000-0 0  9995
2 43058  55.9885 271.6639 0004620 264.4453  95.5301  1.70474525 21951
GSAT0221 (PRN E15)      
1 43564U 18060A   21172.71886119 -.00000074  00000-0  00000-0 0  9993
2 43564  57.0189  30.9697 0002249 296.5830  63.4556  1.70475487 18111
GSAT0222 (PRN E33)      
1 43565U 18060B   21170.00577511 -.00000069  00000-0  00000+0 0  9990
2 43565  57.0195  31.0436 0002290 314.4849  45.5546  1.70475506 18110
GSAT0219 (PRN E36)      
1 43566U 18060C   21172.57269837 -.00000073  00000-0  00000+0 0  9999
2 43566  57.0221  30.9756 0001931 320.8646  39.1830  1.70475482 18131
GSAT0220 (PRN E13)      
1 43567U 18060D   21171.03277292 -.00000071  00000-0  00000-0 0  9993
2 43567  57.0205  31.0183 0001918 309.8272  50.2153  1.70475155 18091
